CCSDS_OMM_VERS = 2.0
CREATION_DATE  = 
ORIGINATOR     = 

OBJECT_NAME    = SENTINEL-1D
OBJECT_ID      = 2025-251A
CENTER_NAME    = EARTH
REF_FRAME      = TEME
TIME_SYSTEM    = UTC
MEAN_ELEMENT_THEORY = SGP/SGP4

EPOCH          = 2025-11-25T22:17:03.828192
MEAN_MOTION    = 14.59751375
ECCENTRICITY   = .0001477
INCLINATION    = 98.1939
RA_OF_ASC_NODE = 335.1735
ARG_OF_PERICENTER = 179.8573
MEAN_ANOMALY   = 180.2628

EPHEMERIS_TYPE = 0
CLASSIFICATION_TYPE = U
NORAD_CAT_ID   = 66315
ELEMENT_SET_NO = 999
REV_AT_EPOCH   = 308
BSTAR          = .52376371E-4
MEAN_MOTION_DOT = .204E-5
MEAN_MOTION_DDOT = 0

CCSDS_OMM_VERS = 2.0
CREATION_DATE  = 
ORIGINATOR     = 

OBJECT_NAME    = QPS-SAR-14 (YACHIHOKO-I)
OBJECT_ID      = 2025-252A
CENTER_NAME    = EARTH
REF_FRAME      = TEME
TIME_SYSTEM    = UTC
MEAN_ELEMENT_THEORY = SGP/SGP4

EPOCH          = 2025-11-27T20:43:22.226016
MEAN_MOTION    = 14.97463530
ECCENTRICITY   = .0007258
INCLINATION    = 42.0031
RA_OF_ASC_NODE = 156.9265
ARG_OF_PERICENTER = 45.1888
MEAN_ANOMALY   = 314.9526

EPHEMERIS_TYPE = 0
CLASSIFICATION_TYPE = U
NORAD_CAT_ID   = 66316
ELEMENT_SET_NO = 999
REV_AT_EPOCH   = 330
BSTAR          = .46373E-3
MEAN_MOTION_DOT = .5314E-4
MEAN_MOTION_DDOT = 0

CCSDS_OMM_VERS = 2.0
CREATION_DATE  = 
ORIGINATOR     = 

OBJECT_NAME    = ELECTRON R/B
OBJECT_ID      = 2025-252B
CENTER_NAME    = EARTH
REF_FRAME      = TEME
TIME_SYSTEM    = UTC
MEAN_ELEMENT_THEORY = SGP/SGP4

EPOCH          = 2025-11-27T04:18:57.529728
MEAN_MOTION    = 15.86329035
ECCENTRICITY   = .01480399
INCLINATION    = 41.9921
RA_OF_ASC_NODE = 147.1614
ARG_OF_PERICENTER = 26.7333
MEAN_ANOMALY   = 334.1060

EPHEMERIS_TYPE = 0
CLASSIFICATION_TYPE = U
NORAD_CAT_ID   = 66317
ELEMENT_SET_NO = 999
REV_AT_EPOCH   = 335
BSTAR          = .18009643E-2
MEAN_MOTION_DOT = .1204433E-1
MEAN_MOTION_DDOT = .7741828E-5

CCSDS_OMM_VERS = 2.0
CREATION_DATE  = 
ORIGINATOR     = 

OBJECT_NAME    = ELECTRON KICK STAGE R/B
OBJECT_ID      = 2025-252C
CENTER_NAME    = EARTH
REF_FRAME      = TEME
TIME_SYSTEM    = UTC
MEAN_ELEMENT_THEORY = SGP/SGP4

EPOCH          = 2025-11-27T17:14:07.049760
MEAN_MOTION    = 16.06261038
ECCENTRICITY   = .00969677
INCLINATION    = 41.9758
RA_OF_ASC_NODE = 142.4924
ARG_OF_PERICENTER = 186.5692
MEAN_ANOMALY   = 173.3906

EPHEMERIS_TYPE = 0
CLASSIFICATION_TYPE = U
NORAD_CAT_ID   = 66318
ELEMENT_SET_NO = 999
REV_AT_EPOCH   = 345
BSTAR          = .18941639E-2
MEAN_MOTION_DOT = .2901006E-1
MEAN_MOTION_DDOT = .7770424E-5

CCSDS_OMM_VERS = 2.0
CREATION_DATE  = 
ORIGINATOR     = 

OBJECT_NAME    = STARLINK-35442
OBJECT_ID      = 2025-253A
CENTER_NAME    = EARTH
REF_FRAME      = TEME
TIME_SYSTEM    = UTC
MEAN_ELEMENT_THEORY = SGP/SGP4

EPOCH          = 2025-11-28T04:00:03.998880
MEAN_MOTION    = 15.50753256
ECCENTRICITY   = .0000913
INCLINATION    = 42.9999
RA_OF_ASC_NODE = 69.9698
ARG_OF_PERICENTER = 260.1917
MEAN_ANOMALY   = 344.5025

EPHEMERIS_TYPE = 0
CLASSIFICATION_TYPE = U
NORAD_CAT_ID   = 66319
ELEMENT_SET_NO = 999
REV_AT_EPOCH   = 468
BSTAR          = -.9685E-2
MEAN_MOTION_DOT = -.534611E-2
MEAN_MOTION_DDOT = 0

CCSDS_OMM_VERS = 2.0
CREATION_DATE  = 
ORIGINATOR     = 

OBJECT_NAME    = STARLINK-34616
OBJECT_ID      = 2025-253B
CENTER_NAME    = EARTH
REF_FRAME      = TEME
TIME_SYSTEM    = UTC
MEAN_ELEMENT_THEORY = SGP/SGP4

EPOCH          = 2025-11-28T04:00:03.998880
MEAN_MOTION    = 15.50589833
ECCENTRICITY   = .00016
INCLINATION    = 42.9996
RA_OF_ASC_NODE = 69.9651
ARG_OF_PERICENTER = 274.2437
MEAN_ANOMALY   = 332.3990

EPHEMERIS_TYPE = 0
CLASSIFICATION_TYPE = U
NORAD_CAT_ID   = 66320
ELEMENT_SET_NO = 999
REV_AT_EPOCH   = 479
BSTAR          = -.13468E-2
MEAN_MOTION_DOT = -.78594E-3
MEAN_MOTION_DDOT = 0

CCSDS_OMM_VERS = 2.0
CREATION_DATE  = 
ORIGINATOR     = 

OBJECT_NAME    = STARLINK-34615
OBJECT_ID      = 2025-253C
CENTER_NAME    = EARTH
REF_FRAME      = TEME
TIME_SYSTEM    = UTC
MEAN_ELEMENT_THEORY = SGP/SGP4

EPOCH          = 2025-11-28T04:00:03.998880
MEAN_MOTION    = 15.62647335
ECCENTRICITY   = .0002386
INCLINATION    = 42.9994
RA_OF_ASC_NODE = 69.7289
ARG_OF_PERICENTER = 337.0565
MEAN_ANOMALY   = 5.6498

EPHEMERIS_TYPE = 0
CLASSIFICATION_TYPE = U
NORAD_CAT_ID   = 66321
ELEMENT_SET_NO = 999
REV_AT_EPOCH   = 463
BSTAR          = .53628E-3
MEAN_MOTION_DOT = .49264E-3
MEAN_MOTION_DDOT = 0

CCSDS_OMM_VERS = 2.0
CREATION_DATE  = 
ORIGINATOR     = 

OBJECT_NAME    = STARLINK-35292
OBJECT_ID      = 2025-253D
CENTER_NAME    = EARTH
REF_FRAME      = TEME
TIME_SYSTEM    = UTC
MEAN_ELEMENT_THEORY = SGP/SGP4

EPOCH          = 2025-11-28T00:00:02.000160
MEAN_MOTION    = 15.50839435
ECCENTRICITY   = .00010116
INCLINATION    = 43.0001
RA_OF_ASC_NODE = 70.9164
ARG_OF_PERICENTER = 262.7231
MEAN_ANOMALY   = 141.8439

EPHEMERIS_TYPE = 0
CLASSIFICATION_TYPE = U
NORAD_CAT_ID   = 66322
ELEMENT_SET_NO = 999
REV_AT_EPOCH   = 455
BSTAR          = -.81204855E-2
MEAN_MOTION_DOT = -.454283E-2
MEAN_MOTION_DDOT = 0

CCSDS_OMM_VERS = 2.0
CREATION_DATE  = 
ORIGINATOR     = 

OBJECT_NAME    = STARLINK-35309
OBJECT_ID      = 2025-253E
CENTER_NAME    = EARTH
REF_FRAME      = TEME
TIME_SYSTEM    = UTC
MEAN_ELEMENT_THEORY = SGP/SGP4

EPOCH          = 2025-11-28T04:00:03.998880
MEAN_MOTION    = 15.50556246
ECCENTRICITY   = .0000849
INCLINATION    = 42.9996
RA_OF_ASC_NODE = 69.9269
ARG_OF_PERICENTER = 270.4317
MEAN_ANOMALY   = 351.5615

EPHEMERIS_TYPE = 0
CLASSIFICATION_TYPE = U
NORAD_CAT_ID   = 66323
ELEMENT_SET_NO = 999
REV_AT_EPOCH   = 458
BSTAR          = -.35878E-3
MEAN_MOTION_DOT = -.21314E-3
MEAN_MOTION_DDOT = 0

CCSDS_OMM_VERS = 2.0
CREATION_DATE  = 
ORIGINATOR     = 

OBJECT_NAME    = STARLINK-35506
OBJECT_ID      = 2025-253F
CENTER_NAME    = EARTH
REF_FRAME      = TEME
TIME_SYSTEM    = UTC
MEAN_ELEMENT_THEORY = SGP/SGP4

EPOCH          = 2025-11-28T04:00:03.998880
MEAN_MOTION    = 15.50580239
ECCENTRICITY   = .0001598
INCLINATION    = 42.9998
RA_OF_ASC_NODE = 69.9454
ARG_OF_PERICENTER = 270.6937
MEAN_ANOMALY   = 343.6162

EPHEMERIS_TYPE = 0
CLASSIFICATION_TYPE = U
NORAD_CAT_ID   = 66324
ELEMENT_SET_NO = 999
REV_AT_EPOCH   = 468
BSTAR          = -.95953E-3
MEAN_MOTION_DOT = -.56233E-3
MEAN_MOTION_DDOT = 0

CCSDS_OMM_VERS = 2.0
CREATION_DATE  = 
ORIGINATOR     = 

OBJECT_NAME    = STARLINK-35504
OBJECT_ID      = 2025-253G
CENTER_NAME    = EARTH
REF_FRAME      = TEME
TIME_SYSTEM    = UTC
MEAN_ELEMENT_THEORY = SGP/SGP4

EPOCH          = 2025-11-28T04:00:03.998880
MEAN_MOTION    = 15.50625714
ECCENTRICITY   = .0001024
INCLINATION    = 42.9997
RA_OF_ASC_NODE = 69.9367
ARG_OF_PERICENTER = 273.4745
MEAN_ANOMALY   = 344.6980

EPHEMERIS_TYPE = 0
CLASSIFICATION_TYPE = U
NORAD_CAT_ID   = 66325
ELEMENT_SET_NO = 999
REV_AT_EPOCH   = 458
BSTAR          = -.28064E-2
MEAN_MOTION_DOT = -.161884E-2
MEAN_MOTION_DDOT = 0

CCSDS_OMM_VERS = 2.0
CREATION_DATE  = 
ORIGINATOR     = 

OBJECT_NAME    = STARLINK-35479
OBJECT_ID      = 2025-253H
CENTER_NAME    = EARTH
REF_FRAME      = TEME
TIME_SYSTEM    = UTC
MEAN_ELEMENT_THEORY = SGP/SGP4

EPOCH          = 2025-11-28T04:00:03.998880
MEAN_MOTION    = 15.50595337
ECCENTRICITY   = .0000831
INCLINATION    = 42.9996
RA_OF_ASC_NODE = 69.9210
ARG_OF_PERICENTER = 262.3167
MEAN_ANOMALY   = 1.5737

EPHEMERIS_TYPE = 0
CLASSIFICATION_TYPE = U
NORAD_CAT_ID   = 66326
ELEMENT_SET_NO = 999
REV_AT_EPOCH   = 468
BSTAR          = -.14414E-2
MEAN_MOTION_DOT = -.84043E-3
MEAN_MOTION_DDOT = 0

