SENTINEL-1D             
1 66315U 25251A   25329.92851653  .00000204  00000+0  52376-4 0  9998
2 66315  98.1939 335.1735 0001477 179.8573 180.2628 14.59751375  3083
QPS-SAR-14 (YACHIHOKO-I)
1 66316U 25252A   25331.86345169  .00005314  00000+0  46373-3 0  9992
2 66316  42.0031 156.9265 0007258  45.1888 314.9526 14.97463530  3302
ELECTRON R/B            
1 66317U 25252B   25331.17983252  .01204433  77418-5  18010-2 0  9991
2 66317  41.9921 147.1614 0148039  26.7333 334.1060 15.86329035  3354
ELECTRON KICK STAGE R/B 
1 66318U 25252C   25331.71813715  .02901006  77704-5  18942-2 0  9991
2 66318  41.9758 142.4924 0096967 186.5692 173.3906 16.06261038  3454
STARLINK-35442          
1 66319U 25253A   25332.16671295 -.00534611  00000+0 -96850-2 0  9995
2 66319  42.9999  69.9698 0000913 260.1917 344.5025 15.50753256  4685
STARLINK-34616          
1 66320U 25253B   25332.16671295 -.00078594  00000+0 -13468-2 0  9994
2 66320  42.9996  69.9651 0001600 274.2437 332.3990 15.50589833  4796
STARLINK-34615          
1 66321U 25253C   25332.16671295  .00049264  00000+0  53628-3 0  9998
2 66321  42.9994  69.7289 0002386 337.0565   5.6498 15.62647335  4633
STARLINK-35292          
1 66322U 25253D   25332.00002315 -.00454283  00000+0 -81205-2 0  9997
2 66322  43.0001  70.9164 0001011 262.7231 141.8439 15.50839435  4559
STARLINK-35309          
1 66323U 25253E   25332.16671295 -.00021314  00000+0 -35878-3 0  9995
2 66323  42.9996  69.9269 0000849 270.4317 351.5615 15.50556246  4589
STARLINK-35506          
1 66324U 25253F   25332.16671295 -.00056233  00000+0 -95953-3 0  9994
2 66324  42.9998  69.9454 0001598 270.6937 343.6162 15.50580239  4689
STARLINK-35504          
1 66325U 25253G   25332.16671295 -.00161884  00000+0 -28064-2 0  9992
2 66325  42.9997  69.9367 0001024 273.4745 344.6980 15.50625714  4580
STARLINK-35479          
1 66326U 25253H   25332.16671295 -.00084043  00000+0 -14414-2 0  9998
2 66326  42.9996  69.9210 0000831 262.3167   1.5737 15.50595337  4684
